IRIDIUM 112             
1 41925U 17003J   24150.72664686  .00000358  00000+0  12074-3 0  9991
2 41925  86.3987  41.0856 0002348  79.0046 281.1413 14.34217690385992
IRIDIUM 111             
1 41926U 17003K   24150.71396136  .00000226  00000+0  73797-4 0  9997
2 41926  86.3990  41.1448 0002039  79.1504 280.9921 14.34218133385974
IRIDIUM 113             
1 42803U 17039A   24150.90323240  .00000103  00000+0  29807-4 0  9995
2 42803  86.3956 274.8261 0001996  90.6436 269.4989 14.34218356363937
IRIDIUM 123             
1 42804U 17039B   24150.94471030  .00000204  00000+0  65702-4 0  9997
2 42804  86.3943 306.3256 0002032  87.6809 272.4620 14.34218316362707
IRIDIUM 120             
1 42805U 17039C   24150.89688972  .00000352  00000+0  11869-3 0  9995
2 42805  86.3946 274.7083 0002166  93.2481 266.8963 14.34218180363925
IRIDIUM 115             
1 42806U 17039D   24150.83084637  .00000633  00000+0  18226-3 0  9994
2 42806  86.4485 274.7579 0001967  84.6125 275.5300 14.43279666366327
IRIDIUM 118             
1 42807U 17039E   24150.90665336  .00000535  00000+0  18381-3 0  9997
2 42807  86.3942 306.3430 0002288  90.0661 270.0797 14.34216905362699
IRIDIUM 117             
1 42808U 17039F   24150.92567267  .00000412  00000+0  14009-3 0  9991
2 42808  86.3940 306.2988 0001820  82.7134 277.4268 14.34216018362733
